NORAD_CAT_ID,OBJECT_NAME,OBJECT_TYPE,EPOCH,MEAN_MOTION,ECCENTRICITY,INCLINATION,RA_OF_ASC_NODE,ARG_OF_PERICENTER,MEAN_ANOMALY,BSTAR,MEAN_MOTION_DOT,MEAN_MOTION_DDOT,TLE_LINE0,TLE_LINE1,TLE_LINE2,SEMIMAJOR_AXIS,PERIOD,APOGEE,PERIGEE,DECAYED
52578.0,STARLINK-3833,PAYLOAD,2023-04-10 09:18:50,15.08838045,0.0001184,53.2132,231.9543,85.1185,274.9943,0.00011207,1.496e-05,0.0,0 STARLINK-3833,1 52578U 22051AU  23100.38807936  .00001496  00000-0  11207-3 0  9991,2 52578  53.2132 231.9543 0001184  85.1185 274.9943 15.08838045 50773,6917.886,95.438,540.57,538.932,0.0
52578.0,STARLINK-3833,PAYLOAD,2023-04-10 18:51:08,15.08852548,0.0001612,53.2146,230.1706,90.8287,269.2889,0.000295,4.412e-05,0.0,0 STARLINK-3833,1 52578U 22051AU  23100.78551268  .00004412  00000-0  29500-3 0  9995,2 52578  53.2146 230.1706 0001612  90.8287 269.2889 15.08852548 50761,6917.842,95.437,540.822,538.592,0.0
52578.0,STARLINK-3833,PAYLOAD,2023-04-11 12:20:22,15.08843165,0.0001577,53.2155,226.9008,100.1825,259.9345,-8.2028e-06,-4.19e-06,0.0,0 STARLINK-3833,1 52578U 22051AU  23101.51415200 -.00000419  00000-0 -82028-5 0  9993,2 52578  53.2155 226.9008 0001577 100.1825 259.9345 15.08843165 50940,6917.871,95.437,540.827,538.645,0.0
52578.0,STARLINK-3833,PAYLOAD,2023-04-12 12:11:10,15.08840262,0.0001642,53.2172,222.4412,101.2086,258.909,-3.1681e-05,-7.92e-06,0.0,0 STARLINK-3833,1 52578U 22051AU  23102.50775488 -.00000792  00000-0 -31681-4 0  9992,2 52578  53.2172 222.4412 0001642 101.2086 258.9090 15.08840262 51024,6917.88,95.438,540.881,538.609,0.0
52578.0,STARLINK-3833,PAYLOAD,2023-04-13 12:01:57,15.08840992,0.0001762,53.2185,217.9818,100.3762,259.7428,0.00010388,1.366e-05,0.0,0 STARLINK-3833,1 52578U 22051AU  23103.50135586  .00001366  00000-0  10388-3 0  9998,2 52578  53.2185 217.9818 0001762 100.3762 259.7428 15.08840992 51249,6917.877,95.437,540.961,538.523,0.0
52578.0,STARLINK-3833,PAYLOAD,2023-04-14 11:52:44,15.08837153,0.0001451,53.2169,213.5217,85.7735,274.3423,0.00010745,1.422e-05,0.0,0 STARLINK-3833,1 52578U 22051AU  23104.49496074  .00001422  00000-0  10745-3 0  9999,2 52578  53.2169 213.5217 0001451  85.7735 274.3423 15.08837153 51329,6917.889,95.438,540.758,538.75,0.0
52578.0,STARLINK-3833,PAYLOAD,2023-04-14 16:38:53,15.08847794,0.0001417,53.2131,212.6247,97.8836,262.2317,0.00020024,2.901e-05,0.0,0 STARLINK-3833,1 52578U 22051AU  23104.69367385  .00002901  00000-0  20024-3 0  9997,2 52578  53.2131 212.6247 0001417  97.8836 262.2317 15.08847794 51420,6917.857,95.437,540.702,538.741,0.0
52578.0,STARLINK-3833,PAYLOAD,2023-04-15 13:18:54,15.08849024,0.0001335,53.2131,208.7627,67.9105,292.2029,4.2625e-05,3.91e-06,0.0,0 STARLINK-3833,1 52578U 22051AU  23105.55479458  .00000391  00000-0  42625-4 0  9991,2 52578  53.2131 208.7627 0001335  67.9105 292.2029 15.08849024 51559,6917.853,95.437,540.641,538.794,0.0
52578.0,STARLINK-3833,PAYLOAD,2023-04-15 16:29:39,15.0886182,9.68e-05,53.2143,208.165,94.6507,265.4596,0.00026547,3.942e-05,0.0,0 STARLINK-3833,1 52578U 22051AU  23105.68726674  .00003942  00000-0  26547-3 0  9999,2 52578  53.2143 208.1650 0000968  94.6507 265.4596 15.08861820 51500,6917.814,95.436,540.348,539.009,0.0
52578.0,STARLINK-3833,PAYLOAD,2023-04-16 00:26:36,15.08836867,8.78e-05,53.2148,206.6778,118.1036,242.0045,0.00025469,3.768e-05,0.0,0 STARLINK-3833,1 52578U 22051AU  23106.01847713  .00003768  00000-0  25469-3 0  9993,2 52578  53.2148 206.6778 0000878 118.1036 242.0045 15.08836867 51624,6917.89,95.438,540.362,539.148,0.0
52578.0,STARLINK-3833,PAYLOAD,2023-04-16 13:09:41,15.08847384,0.0001483,53.2152,204.3001,99.963,260.153,0.00010126,1.324e-05,0.0,0 STARLINK-3833,1 52578U 22051AU  23106.54839396  .00001324  00000-0  10126-3 0  9999,2 52578  53.2152 204.3001 0001483  99.9630 260.1530 15.08847384 51639,6917.858,95.437,540.749,538.697,0.0
52578.0,STARLINK-3833,PAYLOAD,2023-04-16 16:20:27,15.08849732,0.0001659,53.2142,203.7023,123.8281,236.2869,0.00018606,2.675e-05,0.0,0 STARLINK-3833,1 52578U 22051AU  23106.68087320  .00002675  00000-0  18606-3 0  9997,2 52578  53.2142 203.7023 0001659 123.8281 236.2869 15.08849732 51727,6917.851,95.437,540.863,538.568,0.0
52578.0,STARLINK-3833,PAYLOAD,2023-04-17 11:25:05,15.08837962,0.0001187,53.2143,200.133,110.2892,249.8228,-3.7884e-05,-8.91e-06,0.0,0 STARLINK-3833,1 52578U 22051AU  23107.47575895 -.00000891  00000-0 -37884-4 0  9994,2 52578  53.2143 200.1330 0001187 110.2892 249.8228 15.08837962 51848,6917.887,95.438,540.573,538.93,0.0
52578.0,STARLINK-3833,PAYLOAD,2023-04-17 16:11:15,15.08841411,0.0001322,53.2149,199.2449,102.63,257.484,9.7322e-05,1.261e-05,0.0,0 STARLINK-3833,1 52578U 22051AU  23107.67447937  .00001261  00000-0  97322-4 0  9994,2 52578  53.2149 199.2449 0001322 102.6300 257.4840 15.08841411 51808,6917.876,95.437,540.656,538.827,0.0
52578.0,STARLINK-3833,PAYLOAD,2023-04-18 09:40:29,15.08840881,0.0001236,53.2141,195.9739,97.7681,262.3451,0.00022209,3.249e-05,0.0,0 STARLINK-3833,1 52578U 22051AU  23108.40312228  .00003249  00000-0  22209-3 0  9999,2 52578  53.2141 195.9739 0001236  97.7681 262.3451 15.08840881 51910,6917.878,95.437,540.598,538.888,0.0
52578.0,STARLINK-3833,PAYLOAD,2023-04-18 16:02:01,15.08854656,0.0001369,53.2147,194.7843,96.7057,263.4091,0.00057576,8.891e-05,0.0,0 STARLINK-3833,1 52578U 22051AU  23108.66807850  .00008891  00000-0  57576-3 0  9990,2 52578  53.2147 194.7843 0001369  96.7057 263.4091 15.08854656 52022,6917.836,95.437,540.648,538.754,0.0
52578.0,STARLINK-3833,PAYLOAD,2023-04-19 09:31:17,15.08836012,0.0001194,53.215,191.5139,106.7274,253.385,3.4068e-05,2.54e-06,0.0,0 STARLINK-3833,1 52578U 22051AU  23109.39672477  .00000254  00000-0  34068-4 0  9993,2 52578  53.2150 191.5139 0001194 106.7274 253.3850 15.08836012 52069,6917.893,95.438,540.584,538.932,0.0
52578.0,STARLINK-3833,PAYLOAD,2023-04-19 14:17:26,15.08838122,0.0001184,53.2149,190.622,103.5081,256.6043,0.00014796,2.068e-05,0.0,0 STARLINK-3833,1 52578U 22051AU  23109.59544577  .00002068  00000-0  14796-3 0  9994,2 52578  53.2149 190.6220 0001184 103.5081 256.6043 15.08838122 52095,6917.886,95.438,540.57,538.932,0.0
52578.0,STARLINK-3833,PAYLOAD,2023-04-20 09:22:04,15.08834295,0.0001922,53.2155,187.0542,92.9384,267.1828,0.00010519,1.386e-05,0.0,0 STARLINK-3833,1 52578U 22051AU  23110.39032971  .00001386  00000-0  10519-3 0  9995,2 52578  53.2155 187.0542 0001922  92.9384 267.1828 15.08834295 52215,6917.898,95.438,541.092,538.433,0.0
52578.0,STARLINK-3833,PAYLOAD,2023-04-20 12:32:50,15.08834277,0.0001351,53.2157,186.461,89.1445,270.9702,8.8581e-06,-1.47e-06,0.0,0 STARLINK-3833,1 52578U 22051AU  23110.52280907 -.00000147  00000-0  88581-5 0  9995,2 52578  53.2157 186.4610 0001351  89.1445 270.9702 15.08834277 52233,6917.898,95.438,540.697,538.828,0.0
52578.0,STARLINK-3833,PAYLOAD,2023-04-21 10:48:14,15.08837423,0.0001457,53.2147,182.2961,87.0832,273.0327,0.0001562,2.199e-05,0.0,0 STARLINK-3833,1 52578U 22051AU  23111.45017264  .00002199  00000-0  15620-3 0  9992,2 52578  53.2147 182.2961 0001457  87.0832 273.0327 15.08837423 52445,6917.888,95.438,540.761,538.745,0.0
52578.0,STARLINK-3833,PAYLOAD,2023-04-21 21:55:56,15.08843458,0.0001329,53.2136,180.2139,76.0033,284.1107,0.00022856,3.352e-05,0.0,0 STARLINK-3833,1 52578U 22051AU  23111.91385124  .00003352  00000-0  22856-3 0  9997,2 52578  53.2136 180.2139 0001329  76.0033 284.1107 15.08843458 52441,6917.87,95.437,540.654,538.815,0.0
52578.0,STARLINK-3833,PAYLOAD,2023-04-22 13:49:47,15.08849432,0.0001393,53.2132,177.2404,70.28,289.8342,0.00028863,4.31e-05,0.0,0 STARLINK-3833,1 52578U 22051AU  23112.57624800  .00004310  00000-0  28863-3 0  9996,2 52578  53.2132 177.2404 0001393  70.2800 289.8342 15.08849432 52617,6917.852,95.437,540.68,538.753,0.0
52578.0,STARLINK-3833,PAYLOAD,2023-04-22 21:46:44,15.08832998,0.0001372,53.2132,175.7535,74.1314,285.983,-3.2316e-05,-8.02e-06,0.0,0 STARLINK-3833,1 52578U 22051AU  23112.90745502 -.00000802  00000-0 -32316-4 0  9999,2 52578  53.2132 175.7535 0001372  74.1314 285.9830 15.08832998 52668,6917.902,95.438,540.716,538.818,0.0
52578.0,STARLINK-3833,PAYLOAD,2023-04-23 13:40:36,15.08824639,0.0001448,53.2134,172.78,82.6662,277.4494,-0.00010157,-1.903e-05,0.0,0 STARLINK-3833,1 52578U 22051AU  23113.56986475 -.00001903  00000-0 -10157-3 0  9999,2 52578  53.2134 172.7800 0001448  82.6662 277.4494 15.08824639 52694,6917.927,95.439,540.794,538.791,0.0
52578.0,STARLINK-3833,PAYLOAD,2023-04-23 20:02:08,15.08836198,0.0001195,53.2143,171.5893,96.7851,263.3277,0.00015395,2.163e-05,0.0,0 STARLINK-3833,1 52578U 22051AU  23113.83482161  .00002163  00000-0  15395-3 0  9998,2 52578  53.2143 171.5893 0001195  96.7851 263.3277 15.08836198 52739,6917.892,95.438,540.584,538.93,0.0
52578.0,STARLINK-3833,PAYLOAD,2023-04-24 13:31:21,15.08875552,7.14e-05,53.2141,168.3195,103.6036,256.5035,0.00086058,0.00013448,0.0,0 STARLINK-3833,1 52578U 22051AU  23114.56344338  .00013448  00000-0  86058-3 0  9994,2 52578  53.2141 168.3195 0000714 103.6036 256.5035 15.08875552 52918,6917.772,95.435,540.131,539.143,0.0
52578.0,STARLINK-3833,PAYLOAD,2023-04-25 11:46:46,15.08835307,0.0001192,53.2138,164.1544,93.6511,266.4617,-9.5531e-05,-1.808e-05,0.0,0 STARLINK-3833,1 52578U 22051AU  23115.49081758 -.00001808  00000-0 -95531-4 0  9997,2 52578  53.2138 164.1544 0001192  93.6511 266.4617 15.08835307 53059,6917.895,95.438,540.584,538.935,0.0
52578.0,STARLINK-3833,PAYLOAD,2023-04-26 13:12:56,15.08850277,0.0001223,53.2142,159.3975,100.7064,259.4066,0.00075591,0.00011766,0.0,0 STARLINK-3833,1 52578U 22051AU  23116.55065951  .00011766  00000-0  75591-3 0  9997,2 52578  53.2142 159.3975 0001223 100.7064 259.4066 15.08850277 53149,6917.849,95.437,540.56,538.868,0.0
52578.0,STARLINK-3833,PAYLOAD,2023-04-26 19:34:29,15.08845138,0.0001117,53.2153,158.2067,108.1182,251.9932,0.00045748,7.001e-05,0.0,0 STARLINK-3833,1 52578U 22051AU  23116.81561816  .00007001  00000-0  45748-3 0  9995,2 52578  53.2153 158.2067 0001117 108.1182 251.9932 15.08845138 53189,6917.865,95.437,540.502,538.957,0.0
